XRISM                   
1 57800U 23137A   26066.32929674  .00007898  00000+0  44948-3 0  9991
2 57800  31.0025 298.9308 0008086  14.0760 346.0103 15.11468795137434
ACS3                    
1 59588U 24077B   26066.40979174  .00022817  00000+0  18399-1 0  9996
2 59588  97.2090   8.0342 0058017  82.5796 278.1956 13.89476881 93880
SZ-21 MODULE            
1 66515U 25246C   26066.46287831  .00050102  00000+0  43323-3 0  9996
2 66515  41.4737 217.0662 0001429 294.3949  65.6744 15.68341086 17722
