CCSDS_OMM_VERS = 2.0
CREATION_DATE  = 
ORIGINATOR     = 

OBJECT_NAME    = XRISM
OBJECT_ID      = 2023-137A
CENTER_NAME    = EARTH
REF_FRAME      = TEME
TIME_SYSTEM    = UTC
MEAN_ELEMENT_THEORY = SGP/SGP4

EPOCH          = 2026-03-07T07:54:11.238336
MEAN_MOTION    = 15.11468795
ECCENTRICITY   = .00080863
INCLINATION    = 31.0025
RA_OF_ASC_NODE = 298.9308
ARG_OF_PERICENTER = 14.0760
MEAN_ANOMALY   = 346.0103

EPHEMERIS_TYPE = 0
CLASSIFICATION_TYPE = U
NORAD_CAT_ID   = 57800
ELEMENT_SET_NO = 999
REV_AT_EPOCH   = 13743
BSTAR          = .44948179E-3
MEAN_MOTION_DOT = .7898E-4
MEAN_MOTION_DDOT = 0

CCSDS_OMM_VERS = 2.0
CREATION_DATE  = 
ORIGINATOR     = 

OBJECT_NAME    = ACS3
OBJECT_ID      = 2024-077B
CENTER_NAME    = EARTH
REF_FRAME      = TEME
TIME_SYSTEM    = UTC
MEAN_ELEMENT_THEORY = SGP/SGP4

EPOCH          = 2026-03-07T09:50:06.006336
MEAN_MOTION    = 13.89476881
ECCENTRICITY   = .0058017
INCLINATION    = 97.2090
RA_OF_ASC_NODE = 8.0342
ARG_OF_PERICENTER = 82.5796
MEAN_ANOMALY   = 278.1956

EPHEMERIS_TYPE = 0
CLASSIFICATION_TYPE = U
NORAD_CAT_ID   = 59588
ELEMENT_SET_NO = 999
REV_AT_EPOCH   = 9388
BSTAR          = .18399274E-1
MEAN_MOTION_DOT = .22817E-3
MEAN_MOTION_DDOT = 0

CCSDS_OMM_VERS = 2.0
CREATION_DATE  = 
ORIGINATOR     = 

OBJECT_NAME    = SZ-21 MODULE
OBJECT_ID      = 2025-246C
CENTER_NAME    = EARTH
REF_FRAME      = TEME
TIME_SYSTEM    = UTC
MEAN_ELEMENT_THEORY = SGP/SGP4

EPOCH          = 2026-03-07T11:06:32.685984
MEAN_MOTION    = 15.68341086
ECCENTRICITY   = .00014291
INCLINATION    = 41.4737
RA_OF_ASC_NODE = 217.0662
ARG_OF_PERICENTER = 294.3949
MEAN_ANOMALY   = 65.6744

EPHEMERIS_TYPE = 0
CLASSIFICATION_TYPE = U
NORAD_CAT_ID   = 66515
ELEMENT_SET_NO = 999
REV_AT_EPOCH   = 1772
BSTAR          = .43322838E-3
MEAN_MOTION_DOT = .50102E-3
MEAN_MOTION_DDOT = 0

